[
    {
        "Altitude(m)": 612502.1874119441,
        "Argument of Periapsis(deg)": 0.0,
        "Eccentricity": 0.0,
        "Inclination(deg)": 60.0,
        "Latitude(deg)": -28.135949861316693,
        "Longitude(deg)": 107.14823707956545,
        "Mean Anomaly(deg)": -32.72730000000001,
        "RAAN(deg)": 225.0,
        "Satellite Name": "Test1 1010",
        "Satellite Number": 1010,
        "Semi-Major Axis(m)": 6980739.136638005,
        "Time(s)": 0
    },
    {
        "Altitude(m)": 612308.635431567,
        "Argument of Periapsis(deg)": 0.00010418945913296404,
        "Eccentricity": 0.0,
        "Inclination(deg)": 60.0,
        "Latitude(deg)": -27.623005307936182,
        "Longitude(deg)": 107.50171141824025,
        "Mean Anomaly(deg)": -32.10719385453816,
        "RAAN(deg)": 224.99957995086024,
        "Satellite Name": "Test1 1010",
        "Satellite Number": 1010,
        "Semi-Major Axis(m)": 6980739.136638005,
        "Time(s)": 10
    }
]